{
  "type": "FeatureCollection",
  "features": [
    {
      "type": "Feature",
      "properties": {
        "norad_id": 30326,
        "name": "FENGYUN 1C DEB",
        "group": "fengyun-1c-debris",
        "lat": 65.54830478536432,
        "lon": -135.5848874481903,
        "alt_km": 894.064912553572,
        "timestamp": "2025-12-23T11:34:48.439260+00:00",
        "meta_object_name": "FENGYUN 1C DEB",
        "meta_object_id": "1999-025AAM",
        "meta_epoch": "2025-12-23T02:35:56.866848",
        "meta_mean_motion": 13.85480077,
        "meta_eccentricity": 0.0141978,
        "meta_inclination": 98.6539,
        "meta_ra_of_asc_node": 243.6373,
        "meta_arg_of_pericenter": 2.4097,
        "meta_mean_anomaly": 357.7714,
        "meta_ephemeris_type": 0,
        "meta_classification_type": "U",
        "meta_norad_cat_id": 30326,
        "meta_element_set_no": 999,
        "meta_rev_at_epoch": 95599,
        "meta_bstar": 0.00019438,
        "meta_mean_motion_dot": 2e-06,
        "meta_mean_motion_ddot": 0,
        "tle_line1": "1 30326U 99025AAM 25357.10829707  .00000200  00000+0  19438-3 0  9994",
        "tle_line2": "2 30326  98.6539 243.6373 0141978   2.4097 357.7714 13.85480077955990"
      },
      "geometry": {
        "type": "Point",
        "coordinates": [
          -135.5848874481903,
          65.54830478536432
        ]
      }
    },
    {
      "type": "Feature",
      "properties": {
        "norad_id": 30327,
        "name": "FENGYUN 1C DEB",
        "group": "fengyun-1c-debris",
        "lat": 64.78886803100512,
        "lon": 89.66532996238098,
        "alt_km": 740.7396603282295,
        "timestamp": "2025-12-23T11:34:48.439269+00:00",
        "meta_object_name": "FENGYUN 1C DEB",
        "meta_object_id": "1999-025AAN",
        "meta_epoch": "2025-12-22T23:17:04.263936",
        "meta_mean_motion": 14.18051752,
        "meta_eccentricity": 0.011775,
        "meta_inclination": 98.4443,
        "meta_ra_of_asc_node": 250.7851,
        "meta_arg_of_pericenter": 113.0828,
        "meta_mean_anomaly": 266.772,
        "meta_ephemeris_type": 0,
        "meta_classification_type": "U",
        "meta_norad_cat_id": 30327,
        "meta_element_set_no": 999,
        "meta_rev_at_epoch": 96588,
        "meta_bstar": 0.0016662,
        "meta_mean_motion_dot": 3.619e-05,
        "meta_mean_motion_ddot": 0,
        "tle_line1": "1 30327U 99025AAN 25356.97018824  .00003619  00000+0  16662-2 0  9991",
        "tle_line2": "2 30327  98.4443 250.7851 0117750 113.0828 266.7720 14.18051752965881"
      },
      "geometry": {
        "type": "Point",
        "coordinates": [
          89.66532996238098,
          64.78886803100512
        ]
      }
    },
    {
      "type": "Feature",
      "properties": {
        "norad_id": 30328,
        "name": "FENGYUN 1C DEB",
        "group": "fengyun-1c-debris",
        "lat": 54.13897103838038,
        "lon": -4.9352969120597825,
        "alt_km": 844.2183455601862,
        "timestamp": "2025-12-23T11:34:48.439278+00:00",
        "meta_object_name": "FENGYUN 1C DEB",
        "meta_object_id": "1999-025AAP",
        "meta_epoch": "2025-12-22T06:43:26.179968",
        "meta_mean_motion": 14.12478392,
        "meta_eccentricity": 0.0006164,
        "meta_inclination": 98.6861,
        "meta_ra_of_asc_node": 6.1086,
        "meta_arg_of_pericenter": 128.5441,
        "meta_mean_anomaly": 296.2657,
        "meta_ephemeris_type": 0,
        "meta_classification_type": "U",
        "meta_norad_cat_id": 30328,
        "meta_element_set_no": 999,
        "meta_rev_at_epoch": 97399,
        "meta_bstar": 0.00011962,
        "meta_mean_motion_dot": 1.78e-06,
        "meta_mean_motion_ddot": 0,
        "tle_line1": "1 30328U 99025AAP 25356.28016412  .00000178  00000+0  11962-3 0  9993",
        "tle_line2": "2 30328  98.6861   6.1086 0006164 128.5441 296.2657 14.12478392973994"
      },
      "geometry": {
        "type": "Point",
        "coordinates": [
          -4.9352969120597825,
          54.13897103838038
        ]
      }
    },
    {
      "type": "Feature",
      "properties": {
        "norad_id": 30329,
        "name": "FENGYUN 1C DEB",
        "group": "fengyun-1c-debris",
        "lat": -14.522526570394568,
        "lon": 94.32991777578187,
        "alt_km": 1047.62915034261,
        "timestamp": "2025-12-23T11:34:48.439286+00:00",
        "meta_object_name": "FENGYUN 1C DEB",
        "meta_object_id": "1999-025AAQ",
        "meta_epoch": "2025-12-22T17:40:08.631264",
        "meta_mean_motion": 13.8675219,
        "meta_eccentricity": 0.01421301,
        "meta_inclination": 99.2634,
        "meta_ra_of_asc_node": 276.0138,
        "meta_arg_of_pericenter": 8.8673,
        "meta_mean_anomaly": 62.2294,
        "meta_ephemeris_type": 0,
        "meta_classification_type": "U",
        "meta_norad_cat_id": 30329,
        "meta_element_set_no": 999,
        "meta_rev_at_epoch": 95549,
        "meta_bstar": 0.00041595885,
        "meta_mean_motion_dot": 4.8e-06,
        "meta_mean_motion_ddot": 0,
        "tle_line1": "1 30329U 99025AAQ 25356.73621101  .00000480  00000+0  41596-3 0  9993",
        "tle_line2": "2 30329  99.2634 276.0138 0142130   8.8673  62.2294 13.86752190955491"
      },
      "geometry": {
        "type": "Point",
        "coordinates": [
          94.32991777578187,
          -14.522526570394568
        ]
      }
    },
    {
      "type": "Feature",
      "properties": {
        "norad_id": 30330,
        "name": "FENGYUN 1C DEB",
        "group": "fengyun-1c-debris",
        "lat": 46.25474782323242,
        "lon": -20.180490171855638,
        "alt_km": 994.2568925645674,
        "timestamp": "2025-12-23T11:34:48.439295+00:00",
        "meta_object_name": "FENGYUN 1C DEB",
        "meta_object_id": "1999-025AAR",
        "meta_epoch": "2025-12-22T23:18:21.076128",
        "meta_mean_motion": 13.82088385,
        "meta_eccentricity": 0.0187726,
        "meta_inclination": 98.8865,
        "meta_ra_of_asc_node": 348.7448,
        "meta_arg_of_pericenter": 157.1645,
        "meta_mean_anomaly": 228.6994,
        "meta_ephemeris_type": 0,
        "meta_classification_type": "U",
        "meta_norad_cat_id": 30330,
        "meta_element_set_no": 999,
        "meta_rev_at_epoch": 94799,
        "meta_bstar": 0.0011425,
        "meta_mean_motion_dot": 1.366e-05,
        "meta_mean_motion_ddot": 0,
        "tle_line1": "1 30330U 99025AAR 25356.97107727  .00001366  00000+0  11425-2 0  9995",
        "tle_line2": "2 30330  98.8865 348.7448 0187726 157.1645 228.6994 13.82088385947997"
      },
      "geometry": {
        "type": "Point",
        "coordinates": [
          -20.180490171855638,
          46.25474782323242
        ]
      }
    },
    {
      "type": "Feature",
      "properties": {
        "norad_id": 30331,
        "name": "FENGYUN 1C DEB",
        "group": "fengyun-1c-debris",
        "lat": 12.417843595888794,
        "lon": -146.21514643999868,
        "alt_km": 971.3860207191738,
        "timestamp": "2025-12-23T11:34:48.439323+00:00",
        "meta_object_name": "FENGYUN 1C DEB",
        "meta_object_id": "1999-025AAS",
        "meta_epoch": "2025-12-23T02:18:33.757920",
        "meta_mean_motion": 13.97842511,
        "meta_eccentricity": 0.0095919,
        "meta_inclination": 98.9552,
        "meta_ra_of_asc_node": 31.4184,
        "meta_arg_of_pericenter": 339.5055,
        "meta_mean_anomaly": 45.1894,
        "meta_ephemeris_type": 0,
        "meta_classification_type": "U",
        "meta_norad_cat_id": 30331,
        "meta_element_set_no": 999,
        "meta_rev_at_epoch": 96264,
        "meta_bstar": 0.00052195,
        "meta_mean_motion_dot": 7.25e-06,
        "meta_mean_motion_ddot": 0,
        "tle_line1": "1 30331U 99025AAS 25357.09622405  .00000725  00000+0  52195-3 0  9993",
        "tle_line2": "2 30331  98.9552  31.4184 0095919 339.5055  45.1894 13.97842511962643"
      },
      "geometry": {
        "type": "Point",
        "coordinates": [
          -146.21514643999868,
          12.417843595888794
        ]
      }
    },
    {
      "type": "Feature",
      "properties": {
        "norad_id": 30332,
        "name": "FENGYUN 1C DEB",
        "group": "fengyun-1c-debris",
        "lat": 79.00631725006602,
        "lon": -148.89244230622322,
        "alt_km": 844.6930533327077,
        "timestamp": "2025-12-23T11:34:48.439331+00:00",
        "meta_object_name": "FENGYUN 1C DEB",
        "meta_object_id": "1999-025AAT",
        "meta_epoch": "2025-12-22T21:26:13.990272",
        "meta_mean_motion": 13.76718449,
        "meta_eccentricity": 0.0178203,
        "meta_inclination": 99.7163,
        "meta_ra_of_asc_node": 328.6287,
        "meta_arg_of_pericenter": 76.6987,
        "meta_mean_anomaly": 338.6711,
        "meta_ephemeris_type": 0,
        "meta_classification_type": "U",
        "meta_norad_cat_id": 30332,
        "meta_element_set_no": 999,
        "meta_rev_at_epoch": 94855,
        "meta_bstar": 0.00040399,
        "meta_mean_motion_dot": 4.01e-06,
        "meta_mean_motion_ddot": 0,
        "tle_line1": "1 30332U 99025AAT 25356.89321748  .00000401  00000+0  40399-3 0  9991",
        "tle_line2": "2 30332  99.7163 328.6287 0178203  76.6987 338.6711 13.76718449948558"
      },
      "geometry": {
        "type": "Point",
        "coordinates": [
          -148.89244230622322,
          79.00631725006602
        ]
      }
    }
  ]
}